{
  "norad_id": 39034,
  "name": "SKYNET 5D",
  "history": [
    {
      "epoch": "2026-04-11T21:50:13.709760Z",
      "apogee_km": 35802.58873289214,
      "perigee_km": 35770.01248839416,
      "latitude_deg": -0.04568989157538378,
      "longitude_deg": 52.74495999645106,
      "height_km": 35801.466485745936,
      "semi_major_axis_km": 42164.43761064315,
      "eccentricity": 0.0003863,
      "inclination_deg": 0.0703,
      "raan_deg": 357.4369,
      "arg_perigee_deg": 26.418,
      "mean_anomaly_deg": 196.5816,
      "mean_motion_rev_day": 1.00272835
    },
    {
      "epoch": "2026-04-13T04:06:23.114304Z",
      "apogee_km": 35802.38472309459,
      "perigee_km": 35770.040450526554,
      "latitude_deg": -0.02196029732172457,
      "longitude_deg": 52.72019724948166,
      "height_km": 35779.89847814497,
      "semi_major_axis_km": 42164.349586810575,
      "eccentricity": 0.00038355,
      "inclination_deg": 0.0706,
      "raan_deg": 0.075,
      "arg_perigee_deg": 24.7496,
      "mean_anomaly_deg": 290.9003,
      "mean_motion_rev_day": 1.00273149
    },
    {
      "epoch": "2026-04-14T11:42:38.504160Z",
      "apogee_km": 35802.14431374843,
      "perigee_km": 35770.10369181242,
      "latitude_deg": 0.049449700843510455,
      "longitude_deg": 52.79760465457756,
      "height_km": 35774.37096258216,
      "semi_major_axis_km": 42164.26100278043,
      "eccentricity": 0.00037995,
      "inclination_deg": 0.0707,
      "raan_deg": 3.4851,
      "arg_perigee_deg": 21.9605,
      "mean_anomaly_deg": 45.6491,
      "mean_motion_rev_day": 1.00273465
    },
    {
      "epoch": "2026-04-15T19:25:20.585856Z",
      "apogee_km": 35801.65181737065,
      "perigee_km": 35770.49246681465,
      "latitude_deg": -0.04879739074445031,
      "longitude_deg": 52.78717178181694,
      "height_km": 35800.40791609173,
      "semi_major_axis_km": 42164.20914209265,
      "eccentricity": 0.0003695,
      "inclination_deg": 0.0748,
      "raan_deg": 340.3209,
      "arg_perigee_deg": 46.4509,
      "mean_anomaly_deg": 161.3105,
      "mean_motion_rev_day": 1.0027365
    },
    {
      "epoch": "2026-04-16T19:25:38.544096Z",
      "apogee_km": 35801.4836005077,
      "perigee_km": 35770.52668734563,
      "latitude_deg": -0.04868875521527594,
      "longitude_deg": 52.79302235665806,
      "height_km": 35800.28754980337,
      "semi_major_axis_km": 42164.14214392666,
      "eccentricity": 0.0003671,
      "inclination_deg": 0.0741,
      "raan_deg": 342.5063,
      "arg_perigee_deg": 44.8434,
      "mean_anomaly_deg": 161.8009,
      "mean_motion_rev_day": 1.00273889
    },
    {
      "epoch": "2026-04-17T22:45:30.796704Z",
      "apogee_km": 35802.50162304043,
      "perigee_km": 35772.60024709815,
      "latitude_deg": -0.062091042120390204,
      "longitude_deg": 52.74689539658152,
      "height_km": 35799.00518236789,
      "semi_major_axis_km": 42165.68793506929,
      "eccentricity": 0.00035457,
      "inclination_deg": 0.073,
      "raan_deg": 344.998,
      "arg_perigee_deg": 37.859,
      "mean_anomaly_deg": 217.3758,
      "mean_motion_rev_day": 1.00268375
    },
    {
      "epoch": "2026-04-18T17:34:54.748704Z",
      "apogee_km": 35802.31999526963,
      "perigee_km": 35772.449939507926,
      "latitude_deg": -0.021552453386203537,
      "longitude_deg": 52.79084680376836,
      "height_km": 35798.45346842192,
      "semi_major_axis_km": 42165.52196738878,
      "eccentricity": 0.0003542,
      "inclination_deg": 0.0729,
      "raan_deg": 346.7247,
      "arg_perigee_deg": 36.1118,
      "mean_anomaly_deg": 140.5115,
      "mean_motion_rev_day": 1.00268967
    },
    {
      "epoch": "2026-04-19T21:17:17.042784Z",
      "apogee_km": 35802.14795308064,
      "perigee_km": 35772.38761038569,
      "latitude_deg": -0.06194490257347779,
      "longitude_deg": 52.74610991523951,
      "height_km": 35801.116826992504,
      "semi_major_axis_km": 42165.40478173317,
      "eccentricity": 0.0003529,
      "inclination_deg": 0.072,
      "raan_deg": 349.623,
      "arg_perigee_deg": 34.0424,
      "mean_anomaly_deg": 196.4033,
      "mean_motion_rev_day": 1.00269385
    },
    {
      "epoch": "2026-04-20T14:15:30.392928Z",
      "apogee_km": 35802.037364871976,
      "perigee_km": 35772.35634306549,
      "latitude_deg": 0.03881241117057952,
      "longitude_deg": 52.794726928629075,
      "height_km": 35786.96360992541,
      "semi_major_axis_km": 42165.33385396874,
      "eccentricity": 0.00035196,
      "inclination_deg": 0.0715,
      "raan_deg": 350.9368,
      "arg_perigee_deg": 33.2315,
      "mean_anomaly_deg": 91.1473,
      "mean_motion_rev_day": 1.00269638
    },
    {
      "epoch": "2026-04-21T19:09:55.149408Z",
      "apogee_km": 35801.943258062005,
      "perigee_km": 35772.157769602236,
      "latitude_deg": -0.03620955928581817,
      "longitude_deg": 52.762177805200835,
      "height_km": 35800.94996863228,
      "semi_major_axis_km": 42165.18751383213,
      "eccentricity": 0.0003532,
      "inclination_deg": 0.0712,
      "raan_deg": 354.1181,
      "arg_perigee_deg": 31.5242,
      "mean_anomaly_deg": 164.4562,
      "mean_motion_rev_day": 1.0027016
    },
    {
      "epoch": "2026-04-22T15:16:36.687072Z",
      "apogee_km": 35801.89712342116,
      "perigee_km": 35771.993646993564,
      "latitude_deg": 0.028999115698347996,
      "longitude_deg": 52.789433342778814,
      "height_km": 35790.56016653962,
      "semi_major_axis_km": 42165.08238520736,
      "eccentricity": 0.0003546,
      "inclination_deg": 0.0707,
      "raan_deg": 355.9501,
      "arg_perigee_deg": 30.653,
      "mean_anomaly_deg": 105.9904,
      "mean_motion_rev_day": 1.00270535
    },
    {
      "epoch": "2026-04-23T12:14:03.742656Z",
      "apogee_km": 35801.87420362207,
      "perigee_km": 35771.786126352476,
      "latitude_deg": 0.060505969266925044,
      "longitude_deg": 52.78550131586396,
      "height_km": 35778.76809857138,
      "semi_major_axis_km": 42164.967164987276,
      "eccentricity": 0.00035679,
      "inclination_deg": 0.0704,
      "raan_deg": 358.405,
      "arg_perigee_deg": 29.3702,
      "mean_anomaly_deg": 60.039,
      "mean_motion_rev_day": 1.00270946
    },
    {
      "epoch": "2026-04-24T19:02:17.733120Z",
      "apogee_km": 35801.827838198114,
      "perigee_km": 35771.46076270553,
      "latitude_deg": -0.026671089229002673,
      "longitude_deg": 52.76388280301816,
      "height_km": 35800.543553671734,
      "semi_major_axis_km": 42164.781300451825,
      "eccentricity": 0.0003601,
      "inclination_deg": 0.0707,
      "raan_deg": 1.7738,
      "arg_perigee_deg": 28.4798,
      "mean_anomaly_deg": 160.8825,
      "mean_motion_rev_day": 1.00271609
    },
    {
      "epoch": "2026-04-25T18:59:40.327872Z",
      "apogee_km": 35801.81721830187,
      "perigee_km": 35771.18039392515,
      "latitude_deg": -0.025209773833936838,
      "longitude_deg": 52.76582645419263,
      "height_km": 35800.379470081454,
      "semi_major_axis_km": 42164.63580611351,
      "eccentricity": 0.0003633,
      "inclination_deg": 0.0709,
      "raan_deg": 4.2543,
      "arg_perigee_deg": 27.9816,
      "mean_anomaly_deg": 159.229,
      "mean_motion_rev_day": 1.00272128
    },
    {
      "epoch": "2026-04-26T22:22:29.073216Z",
      "apogee_km": 35801.80074731016,
      "perigee_km": 35770.862146942396,
      "latitude_deg": -0.05553266576345475,
      "longitude_deg": 52.732402746064,
      "height_km": 35799.447152210276,
      "semi_major_axis_km": 42164.46844712628,
      "eccentricity": 0.00036688,
      "inclination_deg": 0.0711,
      "raan_deg": 7.0918,
      "arg_perigee_deg": 27.4557,
      "mean_anomaly_deg": 208.7483,
      "mean_motion_rev_day": 1.00272725
    },
    {
      "epoch": "2026-04-27T20:37:09.878304Z",
      "apogee_km": 35801.83086247947,
      "perigee_km": 35770.56179288366,
      "latitude_deg": -0.04438940271903003,
      "longitude_deg": 52.753739904954294,
      "height_km": 35801.39526619699,
      "semi_major_axis_km": 42164.33332768157,
      "eccentricity": 0.0003708,
      "inclination_deg": 0.0717,
      "raan_deg": 9.1369,
      "arg_perigee_deg": 27.1942,
      "mean_anomaly_deg": 181.5526,
      "mean_motion_rev_day": 1.00273207
    },
    {
      "epoch": "2026-04-28T12:01:15.855744Z",
      "apogee_km": 35801.88054639626,
      "perigee_km": 35770.33325910822,
      "latitude_deg": 0.05530816438256502,
      "longitude_deg": 52.7907152282808,
      "height_km": 35775.850175543535,
      "semi_major_axis_km": 42164.24390275225,
      "eccentricity": 0.0003741,
      "inclination_deg": 0.0718,
      "raan_deg": 10.4252,
      "arg_perigee_deg": 27.1075,
      "mean_anomaly_deg": 52.0119,
      "mean_motion_rev_day": 1.00273526
    },
    {
      "epoch": "2026-04-29T20:32:09.405888Z",
      "apogee_km": 35802.163944369604,
      "perigee_km": 35770.48156930832,
      "latitude_deg": -0.07288647889867293,
      "longitude_deg": 52.762040536099335,
      "height_km": 35801.70362030335,
      "semi_major_axis_km": 42164.459756838965,
      "eccentricity": 0.0003757,
      "inclination_deg": 0.0734,
      "raan_deg": 336.9503,
      "arg_perigee_deg": 65.8695,
      "mean_anomaly_deg": 175.7891,
      "mean_motion_rev_day": 1.00272756
    },
    {
      "epoch": "2026-04-30T13:38:50.133984Z",
      "apogee_km": 35802.19636394133,
      "perigee_km": 35770.250114762384,
      "latitude_deg": 0.0300356686600788,
      "longitude_deg": 52.801596649726534,
      "height_km": 35780.73865499665,
      "semi_major_axis_km": 42164.36023935186,
      "eccentricity": 0.00037883,
      "inclination_deg": 0.0729,
      "raan_deg": 337.9243,
      "arg_perigee_deg": 66.1913,
      "mean_anomaly_deg": 71.8686,
      "mean_motion_rev_day": 1.00273111
    }
  ]
}